[["observe", {"vessel_name": "#autoLOC_501232", "vessel_type": "VesselSituation.orbiting", "vessel_situation": "VesselSituation.orbiting", "mission_time": 1762036013.695071, "universal_time": 1790.3820092772069, "current_body": "Kerbin", "position": {"x": 0.0, "y": 0.0, "z": 0.0}, "velocity": {"x": 0.0, "y": 0.0, "z": 0.0}, "altitude": 100847.26553836977, "surface_altitude": 99924.1920250504, "speed": 0.0, "vertical_speed": 0, "g_force": 0, "orbit_parameters": {"apoapsis_altitude": 100847.41468735063, "periapsis_altitude": 99182.5516865945, "inclination": 0.00040796380870340807, "eccentricity": 0.0011891624041805609, "period": 0, "time_to_apoapsis": 0, "time_to_periapsis": 0}, "resources": {"LiquidFuel": {"amount": 1406.69189453125, "max": 5040.0}, "ElectricCharge": {"amount": 950.0, "max": 950.0}}, "vessel_status": {"mass": 35634.89453125, "dry_mass": 0, "thrust": 0.0, "available_thrust": 1500000.0, "max_thrust": 1500000.0, "specific_impulse": 0, "control_state": {"throttle": 0.0, "sas": false, "rcs": false, "gear": false, "lights": false, "brakes": false}}, "mechjeb_status": {"api_ready": true, "ascent_status": "Off"}, "part_status": {"part_count": 28, "stage_count": 0, "current_stage": 4}, "nearby_vessels": [], "comprehensive_telemetry": {"timestamp": 1762036013.7836878, "basic_vessel": {"name": "#autoLOC_501232", "type": "VesselType.ship", "situation": "VesselSituation.orbiting", "mass": 35634.89453125, "dry_mass": 19485.0, "crew_count": 3, "crew_capacity": 3, "biome": "Highlands", "recoverable": false, "met": 1713.582009277205}, "performance": {"thrust": 0.0, "max_thrust": 1500000.0, "max_vacuum_thrust": 1500000.0, "specific_impulse": 310.0, "kerbin_sea_level_specific_impulse": 285.0, "vacuum_specific_impulse": 310.0}, "torque": {"available_control_surface_torque": [[0.0, 0.0, 0.0], [0.0, 0.0, 0.0]], "available_engine_torque": [[0.0, 0.0, 0.0], [0.0, 0.0, 0.0]], "available_rcs_torque": [[0.0, 0.0, 0.0], [0.0, 0.0, 0.0]], "available_reaction_wheel_torque": [[15000.0, 15000.0, 15000.0], [-15000.0, -15000.0, -15000.0]], "available_thrust": 1500000.0, "available_torque": [[15000.0, 15000.0, 15000.0], [-15000.0, -15000.0, -15000.0]]}, "position_velocity": {"position_vessel": [0.0, 0.0, 0.0], "velocity_vessel": [0.0, 0.0, 0.0], "position_orbital": [-0.0, 0.0, 0.0], "velocity_orbital": [-0.0, 0.0, 0.0], "position_surface": [0.0, 0.0, 0.0], "velocity_surface": [0.0, 0.0, 0.0], "speed": 0.0, "horizontal_speed": 0.0, "vertical_speed": 0.0, "equivalent_air_speed": 0.0, "true_air_speed": 2039.0999755859375, "terminal_velocity": Infinity}, "altitude_location": {"mean_altitude": 100847.26249298081, "surface_altitude": 99937.94289533014, "bedrock_altitude": 99937.94289533014, "latitude": 0.023105482754636808, "longitude": -172.1478241412695, "elevation": 909.3195976506686}, "aerodynamics": {"atmosphere_density": 0.0, "dynamic_pressure": 0.0, "static_pressure": 0.0, "static_pressure_at_msl": 101325.0, "drag": [-1.2123899995001239e-15, -3.291290622630896e-15, 4.846224818494551e-11], "lift": [1.5530279871249373e-07, -8.915991535683123e-07, -5.666729208993692e-11], "mach": 0.0, "drag_coefficient": null, "lift_coefficient": null, "ballistic_coefficient": null, "reynolds_number": null}, "orientation": {"heading": 359.5653381347656, "pitch": -8.350645065307617, "roll": 164.16033935546875, "direction": [-0.145230784122655, 0.989369337249298, -0.007505588185045058], "rotation": [0.060366651203104055, -0.7958361040696994, -0.040880300699363194, -0.6011069790190441], "angle_of_attack": -15.700858116149902, "sideslip_angle": -55.100830078125}, "flight_dynamics": {"g_force": 0.00044591250480152667, "center_of_mass": [0.0, 0.0, 0.0], "aerodynamic_force": [7.018096801680187e-07, -1.210779773551946e-05, -7.566480434872324e-10], "thrust_specific_fuel_consumption": null, "stall_fraction": null}, "reference_vectors": {"prograde": [-2.2814695086026404e-05, -6.175427857477682e-05, 0.9999999978329495], "retrograde": [2.2814695086026404e-05, 6.175427857477682e-05, -0.9999999978329495], "normal": [3.293861494321759e-13, 0.9999999980932046, 6.175427859085624e-05], "anti_normal": [-3.293861494321759e-13, -0.9999999980932046, -6.175427859085624e-05], "radial": [0.999999999739745, -1.4092344223525823e-09, 2.281469504245015e-05], "anti_radial": [-0.999999999739745, 1.4092344223525823e-09, -2.281469504245015e-05]}, "reference_frames": {"reference_frames": {"vessel": {"position": [0.0, 0.0, 0.0], "velocity": [0.0, 0.0, 0.0], "description": "Vessel-relative coordinates (X=right, Y=forward, Z=up)"}, "orbital": {"position": [-0.0, 0.0, 0.0], "velocity": [-0.0, 0.0, 0.0], "description": "Orbital coordinates (X=anti-radial, Y=prograde, Z=normal)"}, "surface": {"position": [0.0, 0.0, 0.0], "velocity": [0.0, 0.0, 0.0], "description": "Surface coordinates (X=zenith, Y=north, Z=east)"}}, "coordinate_systems": {"vessel_available": true, "orbital_available": true, "surface_available": true}}, "orbital": {"semi_major_axis": 700014.9831869912, "semi_minor_axis": 700014.4882386941, "eccentricity": 0.00118916240407112, "inclination": 0.00040796380946916635, "longitude_of_ascending_node": 3.6487819138240165, "argument_of_periapsis": 4.845181164799153, "mean_anomaly": 3.1608663215209103, "eccentric_anomaly": -3.1223418765450606, "true_anomaly": -3.1223647538396433, "apoapsis": 700847.4146872837, "periapsis": 699182.5516866988, "apoapsis_altitude": 100847.41468728369, "periapsis_altitude": 99182.5516866988, "period": 1958.1913056630437, "orbital_speed": 2243.8467370333697, "speed": 2243.4465913641347, "radius": 700847.2604456462, "time_to_apoapsis": 1952.1845547674711, "time_to_periapsis": 973.0889019359491, "time_to_soi_change": NaN, "epoch": 1790.4420092776538, "mean_anomaly_at_epoch": 3.1609304970383953, "body_name": "Kerbin"}, "control": {"pitch": 0.0, "yaw": 0.0, "roll": 0.0, "throttle": 0.0, "forward": -0.0, "up": 0.0, "right": -0.0, "sas": false, "rcs": false, "brakes": false, "gear": false, "lights": false, "abort": false, "custom_axis01": 0.0, "custom_axis02": 0.0, "custom_axis03": 0.0, "custom_axis04": 0.0, "wheel_steering": 0.0, "wheel_throttle": 0.0, "state": "ControlState.full", "source": "ControlSource.kerbal", "current_stage": 4, "stage_lock": false, "sas_mode": "SASMode.stability_assist", "input_mode": "ControlInputMode.additive"}, "resources": {"ElectricCharge": {"amount": 950.0, "max": 950.0, "flow_mode": null, "density": null}, "MonoPropellant": {"amount": 30.0, "max": 30.0, "flow_mode": null, "density": null}, "Ablator": {"amount": 399.98809814453125, "max": 800.0, "flow_mode": null, "density": null}, "LiquidFuel": {"amount": 1406.69189453125, "max": 5040.0, "flow_mode": null, "density": null}, "Oxidizer": {"amount": 1719.28955078125, "max": 6160.0, "flow_mode": null, "density": null}}}, "execution_time": 121.70899415016174}]]